[{"OBJECT_NAME":"OBJECT A","OBJECT_ID":"2023-189A","EPOCH":"2026-03-09T22:59:06.381600","MEAN_MOTION":15.32403275,"ECCENTRICITY":0.00094831,"INCLINATION":97.4458,"RA_OF_ASC_NODE":86.5997,"ARG_OF_PERICENTER":249.5377,"MEAN_ANOMALY":110.4847,"EPHEMERIS_TYPE":0,"CLASSIFICATION_TYPE":"U","NORAD_CAT_ID":58502,"ELEMENT_SET_NO":999,"REV_AT_EPOCH":12601,"BSTAR":0.00019874471,"MEAN_MOTION_DOT":6.146e-5,"MEAN_MOTION_DDOT":0},{"OBJECT_NAME":"STARLINK-34974","OBJECT_ID":"2025-176Z","EPOCH":"2026-03-09T12:01:51.623616","MEAN_MOTION":15.30183839,"ECCENTRICITY":0.00011865,"INCLINATION":53.1594,"RA_OF_ASC_NODE":153.4555,"ARG_OF_PERICENTER":69.6501,"MEAN_ANOMALY":290.4627,"EPHEMERIS_TYPE":0,"CLASSIFICATION_TYPE":"U","NORAD_CAT_ID":65221,"ELEMENT_SET_NO":999,"REV_AT_EPOCH":3309,"BSTAR":0.00079574997,"MEAN_MOTION_DOT":0.00023271,"MEAN_MOTION_DDOT":0}]
